BEIDOU G1               
1 36287U 10001A   17345.21700466 -.00000291  00000-0  00000+0 0  9996
2 36287   1.4875  11.2572 0003995 204.2844  82.7285  1.00271906 28986
